SENTINEL-6              
1 46984U 20086A   23331.93687407 -.00000055  00000+0  26193-4 0  9998
2 46984  66.0412 271.3435 0007828 269.0898  90.9221 12.80931491140921
